NORAD_CAT_ID,OBJECT_NAME,OBJECT_TYPE,EPOCH,MEAN_MOTION,ECCENTRICITY,INCLINATION,RA_OF_ASC_NODE,ARG_OF_PERICENTER,MEAN_ANOMALY,BSTAR,MEAN_MOTION_DOT,MEAN_MOTION_DDOT,TLE_LINE0,TLE_LINE1,TLE_LINE2,SEMIMAJOR_AXIS,PERIOD,APOGEE,PERIGEE,DECAYED
52993.0,STARLINK-4264,PAYLOAD,2024-04-02 04:29:59,15.08839103,0.0001252,53.2172,25.7332,86.1531,273.9604,0.00011195,1.494e-05,0.0,0 STARLINK-4264,1 52993U 22076H   24093.18749996  .00001494  00000-0  11195-3 0  9994,2 52993  53.2172  25.7332 0001252  86.1531 273.9604 15.08839103 96651,6917.883,95.438,540.614,538.882,0.0
52993.0,STARLINK-4264,PAYLOAD,2024-04-02 12:26:56,15.08829163,0.0001292,53.2169,24.2464,92.2994,267.8146,-4.4116e-05,-9.9e-06,0.0,0 STARLINK-4264,1 52993U 22076H   24093.51870514 -.00000990  00000-0 -44116-4 0  9994,2 52993  53.2169  24.2464 0001292  92.2994 267.8146 15.08829163 96706,6917.914,95.438,540.672,538.885,0.0
52993.0,STARLINK-4264,PAYLOAD,2024-04-03 12:17:43,15.08836769,0.0001403,53.2178,19.7862,89.5463,270.569,0.00013675,1.889e-05,0.0,0 STARLINK-4264,1 52993U 22076H   24094.51231086  .00001889  00000-0  13675-3 0  9991,2 52993  53.2178  19.7862 0001403  89.5463 270.5690 15.08836769 96380,6917.89,95.438,540.726,538.785,0.0
52993.0,STARLINK-4264,PAYLOAD,2024-04-03 18:39:16,15.08836042,0.0001445,53.2186,18.5959,85.5821,274.5336,0.00029431,4.399e-05,0.0,0 STARLINK-4264,1 52993U 22076H   24094.77727406  .00004399  00000-0  29431-3 0  9991,2 52993  53.2186  18.5959 0001445  85.5821 274.5336 15.08836042 96894,6917.892,95.438,540.757,538.758,0.0
52993.0,STARLINK-4264,PAYLOAD,2024-04-04 12:08:30,15.08843543,0.0001494,53.2185,15.3261,84.3821,275.7342,0.0002675,3.972e-05,0.0,0 STARLINK-4264,1 52993U 22076H   24095.50591270  .00003972  00000-0  26750-3 0  9998,2 52993  53.2185  15.3261 0001494  84.3821 275.7342 15.08843543 96530,6917.87,95.437,540.768,538.701,0.0
52993.0,STARLINK-4264,PAYLOAD,2024-04-05 00:51:35,15.08845863,0.0001449,53.2176,12.9456,97.3296,262.7861,0.00026922,4e-05,0.0,0 STARLINK-4264,1 52993U 22076H   24096.03583130  .00004000  00000-0  26922-3 0  9997,2 52993  53.2176  12.9456 0001449  97.3296 262.7861 15.08845863 97089,6917.862,95.437,540.73,538.725,0.0
52993.0,STARLINK-4264,PAYLOAD,2024-04-05 11:59:17,15.08850402,0.0001422,53.2178,10.8643,100.223,259.8923,0.00027568,4.103e-05,0.0,0 STARLINK-4264,1 52993U 22076H   24096.49950782  .00004103  00000-0  27568-3 0  9999,2 52993  53.2178  10.8643 0001422 100.2230 259.8923 15.08850402 96685,6917.849,95.437,540.697,538.73,0.0
52993.0,STARLINK-4264,PAYLOAD,2024-04-05 21:31:36,15.08848328,0.0001565,53.2179,9.0804,97.4423,262.6747,0.00015639,2.202e-05,0.0,0 STARLINK-4264,1 52993U 22076H   24096.89694723  .00002202  00000-0  15639-3 0  9997,2 52993  53.2179   9.0804 0001565  97.4423 262.6747 15.08848328 96741,6917.855,95.437,540.803,538.637,0.0
52993.0,STARLINK-4264,PAYLOAD,2024-04-05 23:06:59,15.08844076,0.000145,53.2184,8.7831,99.9659,260.1497,0.00030427,4.558e-05,0.0,0 STARLINK-4264,1 52993U 22076H   24096.96318953  .00004558  00000-0  30427-3 0  9991,2 52993  53.2184   8.7831 0001450  99.9659 260.1497 15.08844076 97229,6917.868,95.437,540.736,538.73,0.0
52993.0,STARLINK-4264,PAYLOAD,2024-04-06 22:57:46,15.08839476,0.0001492,53.2192,4.3226,102.7389,257.377,-3.632e-06,-3.46e-06,0.0,0 STARLINK-4264,1 52993U 22076H   24097.95678943 -.00000346  00000-0 -36320-5 0  9992,2 52993  53.2192   4.3226 0001492 102.7389 257.3770 15.08839476 96901,6917.882,95.438,540.779,538.715,0.0
52993.0,STARLINK-4264,PAYLOAD,2024-04-07 10:05:28,15.08837514,0.0001347,53.2186,2.2431,92.8252,267.2895,-6.4355e-05,-1.312e-05,0.0,0 STARLINK-4264,1 52993U 22076H   24098.42047069 -.00001312  00000-0 -64355-4 0  9996,2 52993  53.2186   2.2431 0001347  92.8252 267.2895 15.08837514 96972,6917.888,95.438,540.685,538.821,0.0
52993.0,STARLINK-4264,PAYLOAD,2024-04-07 21:13:11,15.0883506,0.000133,53.2201,0.161,91.4076,268.7069,7.3025e-07,-2.76e-06,0.0,0 STARLINK-4264,1 52993U 22076H   24098.88415511 -.00000276  00000-0  73025-6 0  9990,2 52993  53.2201   0.1610 0001330  91.4076 268.7069 15.08835060 97511,6917.895,95.438,540.681,538.84,0.0
52993.0,STARLINK-4264,PAYLOAD,2024-04-07 22:48:34,15.08836572,0.0001364,53.2197,359.8637,91.4878,268.627,7.3621e-06,-1.71e-06,0.0,0 STARLINK-4264,1 52993U 22076H   24098.95039396 -.00000171  00000-0  73621-5 0  9996,2 52993  53.2197 359.8637 0001364  91.4878 268.6270 15.08836572 97056,6917.891,95.438,540.699,538.812,0.0
52993.0,STARLINK-4264,PAYLOAD,2024-04-08 09:56:16,15.08834576,0.0001298,53.2187,357.7837,93.08,267.0341,4.5657e-05,4.39e-06,0.0,0 STARLINK-4264,1 52993U 22076H   24099.41407556  .00000439  00000-0  45657-4 0  9998,2 52993  53.2187 357.7837 0001298  93.0800 267.0341 15.08834576 97125,6917.897,95.438,540.66,538.864,0.0
52993.0,STARLINK-4264,PAYLOAD,2024-04-09 00:14:44,15.08837506,0.0001281,53.2183,355.1073,92.7647,267.3491,8.8511e-05,1.121e-05,0.0,0 STARLINK-4264,1 52993U 22076H   24100.01023414  .00001121  00000-0  88511-4 0  9999,2 52993  53.2183 355.1073 0001281  92.7647 267.3491 15.08837506 97217,6917.888,95.438,540.639,538.867,0.0
52993.0,STARLINK-4264,PAYLOAD,2024-04-09 03:25:30,15.08818306,0.0001386,53.2181,354.5122,96.6024,263.5126,0.00039247,5.96e-05,0.0,0 STARLINK-4264,1 52993U 22076H   24100.14271744  .00005960  00000-0  39247-3 0  9990,2 52993  53.2181 354.5122 0001386  96.6024 263.5126 15.08818306 97705,6917.947,95.439,540.771,538.853,0.0
52993.0,STARLINK-4264,PAYLOAD,2024-04-09 09:47:03,15.08833905,0.0001098,53.2168,353.3201,78.6063,281.5053,3.6067e-05,2.86e-06,0.0,0 STARLINK-4264,1 52993U 22076H   24100.40767876  .00000286  00000-0  36067-4 0  9999,2 52993  53.2168 353.3201 0001098  78.6063 281.5053 15.08833905 97271,6917.899,95.438,540.524,539.004,0.0
52993.0,STARLINK-4264,PAYLOAD,2024-04-10 09:37:50,15.08835812,0.0001463,53.2179,348.862,86.3399,273.7761,5.6331e-05,6.09e-06,0.0,0 STARLINK-4264,1 52993U 22076H   24101.40128449  .00000609  00000-0  56331-4 0  9992,2 52993  53.2179 348.8620 0001463  86.3399 273.7761 15.08835812 97897,6917.893,95.438,540.77,538.746,0.0
52993.0,STARLINK-4264,PAYLOAD,2024-04-10 20:45:32,15.08848133,0.0001362,53.2176,346.7793,87.1251,272.9897,0.00011961,1.617e-05,0.0,0 STARLINK-4264,1 52993U 22076H   24101.86495394  .00001617  00000-0  11961-3 0  9997,2 52993  53.2176 346.7793 0001362  87.1251 272.9897 15.08848133 97965,6917.856,95.437,540.663,538.778,0.0
52993.0,STARLINK-4264,PAYLOAD,2024-04-10 22:20:55,15.08849089,0.0001326,53.2173,346.4821,88.1668,271.9476,0.0001308,1.795e-05,0.0,0 STARLINK-4264,1 52993U 22076H   24101.93119276  .00001795  00000-0  13080-3 0  9998,2 52993  53.2173 346.4821 0001326  88.1668 271.9476 15.08849089 97507,6917.853,95.437,540.635,538.8,0.0
52993.0,STARLINK-4264,PAYLOAD,2024-04-10 23:56:18,15.08819255,0.0001551,53.218,346.185,99.6738,260.4429,0.00057438,8.86e-05,0.0,0 STARLINK-4264,1 52993U 22076H   24101.99743694  .00008860  00000-0  57438-3 0  9996,2 52993  53.2180 346.1850 0001551  99.6738 260.4429 15.08819255 97984,6917.944,95.439,540.882,538.736,0.0
52993.0,STARLINK-4264,PAYLOAD,2024-04-11 09:28:37,15.08846455,0.0001327,53.2176,344.4015,88.9223,271.1921,0.00010877,1.444e-05,0.0,0 STARLINK-4264,1 52993U 22076H   24102.39487438  .00001444  00000-0  10877-3 0  9999,2 52993  53.2176 344.4015 0001327  88.9223 271.1921 15.08846455 98040,6917.861,95.437,540.644,538.808,0.0
52993.0,STARLINK-4264,PAYLOAD,2024-04-11 22:11:42,15.08835979,0.0001499,53.2174,342.0215,91.2098,268.9066,0.00013239,1.819e-05,0.0,0 STARLINK-4264,1 52993U 22076H   24102.92480258  .00001819  00000-0  13239-3 0  9992,2 52993  53.2174 342.0215 0001499  91.2098 268.9066 15.08835979 98123,6917.893,95.438,540.795,538.721,0.0
52993.0,STARLINK-4264,PAYLOAD,2024-04-12 22:02:29,15.08850353,0.0001474,53.2179,337.5599,96.9976,263.1184,-1.0511e-05,-4.55e-06,0.0,0 STARLINK-4264,1 52993U 22076H   24103.91839458 -.00000455  00000-0 -10511-4 0  9990,2 52993  53.2179 337.5599 0001474  96.9976 263.1184 15.08850353 97807,6917.849,95.437,540.733,538.694,0.0
52993.0,STARLINK-4264,PAYLOAD,2024-04-13 01:13:15,15.08851642,0.000139,53.2176,336.9649,96.0135,264.1015,7.9662e-06,-1.61e-06,0.0,0 STARLINK-4264,1 52993U 22076H   24104.05087216 -.00000161  00000-0  79662-5 0  9999,2 52993  53.2176 336.9649 0001390  96.0135 264.1015 15.08851642 98298,6917.845,95.437,540.671,538.748,0.0
52993.0,STARLINK-4264,PAYLOAD,2024-04-13 20:17:53,15.08843413,0.0001502,53.2177,333.3949,102.0492,258.0669,7.9289e-05,9.74e-06,0.0,0 STARLINK-4264,1 52993U 22076H   24104.84575378  .00000974  00000-0  79289-4 0  9992,2 52993  53.2177 333.3949 0001502 102.0492 258.0669 15.08843413 98410,6917.87,95.437,540.774,538.696,0.0
52993.0,STARLINK-4264,PAYLOAD,2024-04-14 20:08:40,15.0883831,0.0001597,53.2184,328.9305,118.8852,241.23,5.2145e-05,5.42e-06,0.0,0 STARLINK-4264,1 52993U 22076H   24105.83935696  .00000542  00000-0  52145-4 0  9998,2 52993  53.2184 328.9305 0001597 118.8852 241.2300 15.08838310 98565,6917.886,95.438,540.855,538.646,0.0
52993.0,STARLINK-4264,PAYLOAD,2024-04-14 21:44:03,15.08838641,0.0001462,53.2187,328.6334,104.3044,255.811,5.0643e-05,5.18e-06,0.0,0 STARLINK-4264,1 52993U 22076H   24105.90559784  .00000518  00000-0  50643-4 0  9990,2 52993  53.2187 328.6334 0001462 104.3044 255.8110 15.08838641 98108,6917.885,95.438,540.761,538.738,0.0
52993.0,STARLINK-4264,PAYLOAD,2024-04-15 15:13:18,15.08838048,0.000155,53.2187,325.3636,114.8129,245.3024,0.0001035,1.36e-05,0.0,0 STARLINK-4264,1 52993U 22076H   24106.63423686  .00001360  00000-0  10350-3 0  9998,2 52993  53.2187 325.3636 0001550 114.8129 245.3024 15.08838048 98216,6917.886,95.438,540.824,538.679,0.0
52993.0,STARLINK-4264,PAYLOAD,2024-04-15 21:34:50,15.0884784,0.0001394,53.2185,324.1764,93.2526,266.8626,8.609e-05,1.083e-05,0.0,0 STARLINK-4264,1 52993U 22076H   24106.89919286  .00001083  00000-0  86090-4 0  9999,2 52993  53.2185 324.1764 0001394  93.2526 266.8626 15.08847840 98722,6917.856,95.437,540.686,538.757,0.0
